start=new Date('2021-12-04T00:00:00.000Z').valueOf();
sats=[{"TIME_SYSTEM":"UTC","PERIOD":"95.593","MEAN_ELEMENT_THEORY":"SGP4","GP_ID":"191012425","TLE_LINE2":"2 48476  53.0451 342.6249 0001505  54.5202 305.5927 15.06392288 31760","COUNTRY_CODE":"US","EPHEMERIS_TYPE":"0","OBJECT_NAME":"STARLINK-2723","INCLINATION":"53.0451","OBJECT_TYPE":"PAYLOAD","SEMIMAJOR_AXIS":"6925.372","REF_FRAME":"TEME","MEAN_MOTION_DDOT":"0.0000000000000","NORAD_CAT_ID":"48476","MEAN_ANOMALY":"305.5927","SITE":"AFETR","OBJECT_ID":"2021-040BA","CENTER_NAME":"EARTH","ELEMENT_SET_NO":"999","TLE_LINE1":"1 48476U 21040BA  21337.39329113  .00000306  00000-0  39436-4 0  9991","REV_AT_EPOCH":"3176","DECAY_DATE":null,"RA_OF_ASC_NODE":"342.6249","EPOCH":"2021-12-03T09:26:20.353632","ARG_OF_PERICENTER":"54.5202","BSTAR":"0.00003943600000","FILE":"3231740","LAUNCH_DATE":"2021-05-09","PERIAPSIS":"546.195","MEAN_MOTION_DOT":"0.00000306","RCS_SIZE":"LARGE","CLASSIFICATION_TYPE":"U","APOAPSIS":"548.279","MEAN_MOTION":"15.06392288","ECCENTRICITY":"0.00015050"},{"INCLINATION":"53.0562","OBJECT_TYPE":"PAYLOAD","SEMIMAJOR_AXIS":"6925.329","REF_FRAME":"TEME","MEAN_MOTION_DDOT":"0.0000000000000","PERIOD":"95.592","TIME_SYSTEM":"UTC","MEAN_ELEMENT_THEORY":"SGP4","GP_ID":"191012581","TLE_LINE2":"2 48478  53.0562 342.0682 0001704  62.2249 297.8913 15.06406236 31787","COUNTRY_CODE":"US","EPHEMERIS_TYPE":"0","OBJECT_NAME":"STARLINK-2728","FILE":"3231740","BSTAR":"0.00027757000000","LAUNCH_DATE":"2021-05-09","PERIAPSIS":"546.014","MEAN_MOTION_DOT":"0.00003856","RCS_SIZE":"LARGE","CLASSIFICATION_TYPE":"U","APOAPSIS":"548.375","MEAN_MOTION":"15.06406236","ECCENTRICITY":"0.00017040","NORAD_CAT_ID":"48478","MEAN_ANOMALY":"297.8913","SITE":"AFETR","OBJECT_ID":"2021-040BC","CENTER_NAME":"EARTH","ELEMENT_SET_NO":"999","TLE_LINE1":"1 48478U 02032DG  21337.51123695  .00003856  00000-0  27757-3 0  9999","REV_AT_EPOCH":"3178","DECAY_DATE":null,"RA_OF_ASC_NODE":"342.0682","EPOCH":"2021-12-03T12:16:10.872480","ARG_OF_PERICENTER":"62.2249"},{"CLASSIFICATION_TYPE":"U","APOAPSIS":"548.227","RCS_SIZE":"LARGE","LAUNCH_DATE":"2021-05-09","PERIAPSIS":"546.221","MEAN_MOTION_DOT":"0.00000722","FILE":"3231740","BSTAR":"0.00006737700000","ECCENTRICITY":"0.00014480","MEAN_MOTION":"15.06396598","ELEMENT_SET_NO":"999","CENTER_NAME":"EARTH","OBJECT_ID":"2021-040BD","SITE":"AFETR","MEAN_ANOMALY":"305.7997","NORAD_CAT_ID":"48479","ARG_OF_PERICENTER":"54.3126","EPOCH":"2021-12-03T10:35:20.208768","RA_OF_ASC_NODE":"342.3821","DECAY_DATE":null,"REV_AT_EPOCH":"3177","TLE_LINE1":"1 48479U 21040BD  21337.44120612  .00000722  00000-0  67377-4 0  9990","SEMIMAJOR_AXIS":"6925.359","INCLINATION":"53.0573","OBJECT_TYPE":"PAYLOAD","MEAN_MOTION_DDOT":"0.0000000000000","REF_FRAME":"TEME","MEAN_ELEMENT_THEORY":"SGP4","PERIOD":"95.592","TIME_SYSTEM":"UTC","OBJECT_NAME":"STARLINK-2755","EPHEMERIS_TYPE":"0","COUNTRY_CODE":"US","TLE_LINE2":"2 48479  53.0573 342.3821 0001448  54.3126 305.7997 15.06396598 31778","GP_ID":"191013359"},{"TIME_SYSTEM":"UTC","PERIOD":"95.592","MEAN_ELEMENT_THEORY":"SGP4","TLE_LINE2":"2 48480  53.0564 352.3069 0001789  56.0908 304.0251 15.06396502 31635","GP_ID":"191013205","OBJECT_NAME":"STARLINK-2690","EPHEMERIS_TYPE":"0","COUNTRY_CODE":"US","OBJECT_TYPE":"PAYLOAD","INCLINATION":"53.0564","SEMIMAJOR_AXIS":"6925.359","MEAN_MOTION_DDOT":"0.0000000000000","REF_FRAME":"TEME","OBJECT_ID":"2021-040BE","SITE":"AFETR","NORAD_CAT_ID":"48480","MEAN_ANOMALY":"304.0251","ELEMENT_SET_NO":"999","CENTER_NAME":"EARTH","DECAY_DATE":null,"REV_AT_EPOCH":"3163","TLE_LINE1":"1 48480U 21040BE  21337.45503068  .00002274  00000-0  17150-3 0  9990","ARG_OF_PERICENTER":"56.0908","EPOCH":"2021-12-03T10:55:14.650752","RA_OF_ASC_NODE":"352.3069","BSTAR":"0.00017150000000","FILE":"3231740","CLASSIFICATION_TYPE":"U","APOAPSIS":"548.463","RCS_SIZE":"LARGE","MEAN_MOTION_DOT":"0.00002274","LAUNCH_DATE":"2021-05-09","PERIAPSIS":"545.985","MEAN_MOTION":"15.06396502","ECCENTRICITY":"0.00017890"},{"MEAN_MOTION_DDOT":"0.0000000000000","REF_FRAME":"TEME","SEMIMAJOR_AXIS":"6925.331","OBJECT_TYPE":"PAYLOAD","INCLINATION":"53.0566","OBJECT_NAME":"STARLINK-2706","EPHEMERIS_TYPE":"0","COUNTRY_CODE":"US","TLE_LINE2":"2 48481  53.0566 352.8408 0001549  69.3445 290.7710 15.06405583 31616","GP_ID":"191012737","MEAN_ELEMENT_THEORY":"SGP4","PERIOD":"95.592","TIME_SYSTEM":"UTC","ECCENTRICITY":"0.00015490","MEAN_MOTION":"15.06405583","CLASSIFICATION_TYPE":"U","APOAPSIS":"548.269","RCS_SIZE":"LARGE","LAUNCH_DATE":"2021-05-09","PERIAPSIS":"546.124","MEAN_MOTION_DOT":"0.00004748","BSTAR":"0.00033741000000","FILE":"3231740","ARG_OF_PERICENTER":"69.3445","RA_OF_ASC_NODE":"352.8408","EPOCH":"2021-12-03T08:04:02.195328","DECAY_DATE":null,"REV_AT_EPOCH":"3161","TLE_LINE1":"1 48481U 21040BF  21337.33613652  .00004748  00000-0  33741-3 0  9991","ELEMENT_SET_NO":"999","CENTER_NAME":"EARTH","OBJECT_ID":"2021-040BF","SITE":"AFETR","MEAN_ANOMALY":"290.7710","NORAD_CAT_ID":"48481"},{"ARG_OF_PERICENTER":"57.6974","EPOCH":"2021-12-03T11:05:50.661024","RA_OF_ASC_NODE":"352.2823","TLE_LINE1":"1 48482U 21040BG  21337.46239191  .00000063  00000-0  23162-4 0  9991","DECAY_DATE":null,"REV_AT_EPOCH":"3163","CENTER_NAME":"EARTH","ELEMENT_SET_NO":"999","SITE":"AFETR","NORAD_CAT_ID":"48482","MEAN_ANOMALY":"302.4183","OBJECT_ID":"2021-040BG","ECCENTRICITY":"0.00017410","MEAN_MOTION":"15.06400625","RCS_SIZE":"LARGE","LAUNCH_DATE":"2021-05-09","MEAN_MOTION_DOT":"0.00000063","PERIAPSIS":"546.006","CLASSIFICATION_TYPE":"U","APOAPSIS":"548.417","FILE":"3231740","BSTAR":"0.00002316200000","COUNTRY_CODE":"US","OBJECT_NAME":"STARLINK-2525","EPHEMERIS_TYPE":"0","GP_ID":"191012893","TLE_LINE2":"2 48482  53.0573 352.2823 0001741  57.6974 302.4183 15.06400625 31630","MEAN_ELEMENT_THEORY":"SGP4","PERIOD":"95.592","TIME_SYSTEM":"UTC","REF_FRAME":"TEME","MEAN_MOTION_DDOT":"0.0000000000000","SEMIMAJOR_AXIS":"6925.347","OBJECT_TYPE":"PAYLOAD","INCLINATION":"53.0573"},{"REF_FRAME":"TEME","MEAN_MOTION_DDOT":"0.0000000000000","SEMIMAJOR_AXIS":"6925.388","OBJECT_TYPE":"PAYLOAD","INCLINATION":"53.0566","COUNTRY_CODE":"US","EPHEMERIS_TYPE":"0","OBJECT_NAME":"STARLINK-2531","GP_ID":"191040409","TLE_LINE2":"2 48483  53.0566 350.5071 0001505  56.1631 303.9501 15.06387265 31691","MEAN_ELEMENT_THEORY":"SGP4","PERIOD":"95.593","TIME_SYSTEM":"UTC","ECCENTRICITY":"0.00015050","MEAN_MOTION":"15.06387265","MEAN_MOTION_DOT":"-0.00000104","LAUNCH_DATE":"2021-05-09","PERIAPSIS":"546.210","RCS_SIZE":"LARGE","CLASSIFICATION_TYPE":"U","APOAPSIS":"548.295","FILE":"3231910","BSTAR":"0.00001191800000","EPOCH":"2021-12-03T20:33:47.551968","RA_OF_ASC_NODE":"350.5071","ARG_OF_PERICENTER":"56.1631","TLE_LINE1":"1 48483U 21040BH  21337.85680037 -.00000104  00000-0  11918-4 0  9997","REV_AT_EPOCH":"3169","DECAY_DATE":null,"CENTER_NAME":"EARTH","ELEMENT_SET_NO":"999","MEAN_ANOMALY":"303.9501","NORAD_CAT_ID":"48483","SITE":"AFETR","OBJECT_ID":"2021-040BH"},{"ECCENTRICITY":"0.00017580","MEAN_MOTION":"15.06394673","RCS_SIZE":"LARGE","MEAN_MOTION_DOT":"0.00002025","LAUNCH_DATE":"2021-05-09","PERIAPSIS":"546.012","CLASSIFICATION_TYPE":"U","APOAPSIS":"548.447","FILE":"3231740","BSTAR":"0.00015486000000","ARG_OF_PERICENTER":"60.5552","EPOCH":"2021-12-03T12:02:53.430720","RA_OF_ASC_NODE":"352.0937","TLE_LINE1":"1 48484U 21040BJ  21337.50200730  .00002025  00000-0  15486-3 0  9994","DECAY_DATE":null,"REV_AT_EPOCH":"3164","CENTER_NAME":"EARTH","ELEMENT_SET_NO":"999","SITE":"AFETR","MEAN_ANOMALY":"299.5613","NORAD_CAT_ID":"48484","OBJECT_ID":"2021-040BJ","REF_FRAME":"TEME","MEAN_MOTION_DDOT":"0.0000000000000","SEMIMAJOR_AXIS":"6925.365","INCLINATION":"53.0562","OBJECT_TYPE":"PAYLOAD","COUNTRY_CODE":"US","OBJECT_NAME":"STARLINK-2696","EPHEMERIS_TYPE":"0","GP_ID":"191013516","TLE_LINE2":"2 48484  53.0562 352.0937 0001758  60.5552 299.5613 15.06394673 31647","MEAN_ELEMENT_THEORY":"SGP4","TIME_SYSTEM":"UTC","PERIOD":"95.592"},{"SEMIMAJOR_AXIS":"6925.354","OBJECT_TYPE":"PAYLOAD","INCLINATION":"53.0558","REF_FRAME":"TEME","MEAN_MOTION_DDOT":"0.0000000000000","MEAN_ELEMENT_THEORY":"SGP4","PERIOD":"95.592","TIME_SYSTEM":"UTC","COUNTRY_CODE":"US","OBJECT_NAME":"STARLINK-2500","EPHEMERIS_TYPE":"0","GP_ID":"191012426","TLE_LINE2":"2 48485  53.0558 352.2636 0001513  57.8835 302.2301 15.06398228 31638","RCS_SIZE":"LARGE","PERIAPSIS":"546.171","LAUNCH_DATE":"2021-05-09","MEAN_MOTION_DOT":"0.00000705","APOAPSIS":"548.267","CLASSIFICATION_TYPE":"U","BSTAR":"0.00006624600000","FILE":"3231740","ECCENTRICITY":"0.00015130","MEAN_MOTION":"15.06398228","CENTER_NAME":"EARTH","ELEMENT_SET_NO":"999","SITE":"AFETR","NORAD_CAT_ID":"48485","MEAN_ANOMALY":"302.2301","OBJECT_ID":"2021-040BK","ARG_OF_PERICENTER":"57.8835","EPOCH":"2021-12-03T11:11:09.871872","RA_OF_ASC_NODE":"352.2636","TLE_LINE1":"1 48485U 21040BK  21337.46608648  .00000705  00000-0  66246-4 0  9994","DECAY_DATE":null,"REV_AT_EPOCH":"3163"},{"DECAY_DATE":null,"REV_AT_EPOCH":"3164","TLE_LINE1":"1 48486U 21040BL  21337.53611942  .00000360  00000-0  43079-4 0  9990","ARG_OF_PERICENTER":"60.4042","RA_OF_ASC_NODE":"351.9436","EPOCH":"2021-12-03T12:52:00.717888","OBJECT_ID":"2021-040BL","SITE":"AFETR","NORAD_CAT_ID":"48486","MEAN_ANOMALY":"299.7101","ELEMENT_SET_NO":"999","CENTER_NAME":"EARTH","MEAN_MOTION":"15.06400600","ECCENTRICITY":"0.00015520","FILE":"3231740","BSTAR":"0.00004307900000","APOAPSIS":"548.287","CLASSIFICATION_TYPE":"U","RCS_SIZE":"LARGE","LAUNCH_DATE":"2021-05-09","MEAN_MOTION_DOT":"0.00000360","PERIAPSIS":"546.137","TLE_LINE2":"2 48486  53.0568 351.9436 0001552  60.4042 299.7101 15.06400600 31644","GP_ID":"191012582","OBJECT_NAME":"STARLINK-2496","EPHEMERIS_TYPE":"0","COUNTRY_CODE":"US","TIME_SYSTEM":"UTC","PERIOD":"95.592","MEAN_ELEMENT_THEORY":"SGP4","MEAN_MOTION_DDOT":"0.0000000000000","REF_FRAME":"TEME","OBJECT_TYPE":"PAYLOAD","INCLINATION":"53.0568","SEMIMAJOR_AXIS":"6925.347"}];
